{
    "links": {
        "self": "http://www.neowsapp.com/rest/v1/neo/3879279?api_key=iIulBulltgU6a56xZRHN4H3l9WmuAYTsLGpBGhQ2"
    },
    "id": "3879279",
    "neo_reference_id": "3879279",
    "name": "(2019 UA2)",
    "designation": "2019 UA2",
    "nasa_jpl_url": "http://ssd.jpl.nasa.gov/sbdb.cgi?sstr=3879279",
    "absolute_magnitude_h": 26.9,
    "estimated_diameter": {
        "kilometers": {
            "estimated_diameter_min": 0.0110803882,
            "estimated_diameter_max": 0.0247765013
        },
        "meters": {
            "estimated_diameter_min": 11.0803882126,
            "estimated_diameter_max": 24.7765012606
        },
        "miles": {
            "estimated_diameter_min": 0.0068850319,
            "estimated_diameter_max": 0.0153953994
        },
        "feet": {
            "estimated_diameter_min": 36.3529808636,
            "estimated_diameter_max": 81.2877363957
        }
    },
    "is_potentially_hazardous_asteroid": false,
    "close_approach_data": [
        {
            "close_approach_date": "2019-10-25",
            "close_approach_date_full": "2019-Oct-25 01:14",
            "epoch_date_close_approach": 1571966040000,
            "relative_velocity": {
                "kilometers_per_second": "8.7875536041",
                "kilometers_per_hour": "31635.192974826",
                "miles_per_hour": "19656.8786570523"
            },
            "miss_distance": {
                "astronomical": "0.023908513",
                "lunar": "9.300411557",
                "kilometers": "3576662.61966731",
                "miles": "2222435.096176478"
            },
            "orbiting_body": "Earth"
        }
    ],
    "orbital_data": {
        "orbit_id": "3",
        "orbit_determination_date": "2019-10-26 08:19:25",
        "first_observation_date": "2019-10-20",
        "last_observation_date": "2019-10-22",
        "data_arc_in_days": 2,
        "observations_used": 19,
        "orbit_uncertainty": "8",
        "minimum_orbit_intersection": ".0239102",
        "jupiter_tisserand_invariant": "3.272",
        "epoch_osculation": "2458777.5",
        "eccentricity": ".5774918875503154",
        "semi_major_axis": "2.389517034340669",
        "inclination": "8.319250476623008",
        "ascending_node_longitude": "207.46244652",
        "orbital_period": "1349.160517069481",
        "perihelion_distance": "1.009590331845644",
        "perihelion_argument": "194.8289328210151",
        "aphelion_distance": "3.769443736835693",
        "perihelion_time": "2458790.769450716262",
        "mean_anomaly": "356.459278049264",
        "mean_motion": ".2668325936353058",
        "equinox": "J2000",
        "orbit_class": {
            "orbit_class_type": "APO",
            "orbit_class_description": "Near-Earth asteroid orbits which cross the Earth’s orbit similar to that of 1862 Apollo",
            "orbit_class_range": "a (semi-major axis) > 1.0 AU; q (perihelion) < 1.017 AU"
        }
    },
    "is_sentry_object": false
}